NORAD_CAT_ID,OBJECT_NAME,OBJECT_TYPE,EPOCH,MEAN_MOTION,ECCENTRICITY,INCLINATION,RA_OF_ASC_NODE,ARG_OF_PERICENTER,MEAN_ANOMALY,BSTAR,MEAN_MOTION_DOT,MEAN_MOTION_DDOT,TLE_LINE0,TLE_LINE1,TLE_LINE2,SEMIMAJOR_AXIS,PERIOD,APOGEE,PERIGEE,DECAYED
51896.0,STARLINK-3593,PAYLOAD,2023-11-19 07:22:54,15.08826418,0.000157,53.2169,176.4543,92.0534,268.0638,-1.2156e-05,-4.81e-06,0.0,0 STARLINK-3593,1 51896U 22022AW  23323.30757477 -.00000481  00000-0 -12156-4 0  9994,2 51896  53.2169 176.4543 0001570  92.0534 268.0638 15.08826418 96273,6917.922,95.438,540.873,538.701,0.0
51896.0,STARLINK-3593,PAYLOAD,2023-11-19 20:05:59,15.08824431,0.0001462,53.2161,174.0751,91.7974,268.3186,0.00012263,1.663e-05,0.0,0 STARLINK-3593,1 51896U 22022AW  23323.83749135  .00001663  00000-0  12263-3 0  9993,2 51896  53.2161 174.0751 0001462  91.7974 268.3186 15.08824431 96357,6917.928,95.439,540.804,538.782,0.0
51896.0,STARLINK-3593,PAYLOAD,2023-11-19 21:41:22,15.0882449,0.0001457,53.2161,173.7778,91.3604,268.7555,0.00011962,1.616e-05,0.0,0 STARLINK-3593,1 51896U 22022AW  23323.90373173  .00001616  00000-0  11962-3 0  9999,2 51896  53.2161 173.7778 0001457  91.3604 268.7555 15.08824490 96362,6917.928,95.439,540.801,538.785,0.0
51896.0,STARLINK-3593,PAYLOAD,2023-11-20 07:13:41,15.08830077,0.0001453,53.216,171.9936,92.529,267.5868,0.00015857,2.236e-05,0.0,0 STARLINK-3593,1 51896U 22022AW  23324.30117187  .00002236  00000-0  15857-3 0  9991,2 51896  53.2160 171.9936 0001453  92.5290 267.5868 15.08830077 96426,6917.911,95.438,540.781,538.771,0.0
51896.0,STARLINK-3593,PAYLOAD,2023-11-20 19:56:46,15.08836438,0.0001372,53.2157,169.6143,93.9954,266.1195,0.00022048,3.222e-05,0.0,0 STARLINK-3593,1 51896U 22022AW  23324.83109038  .00003222  00000-0  22048-3 0  9991,2 51896  53.2157 169.6143 0001372  93.9954 266.1195 15.08836438 96502,6917.891,95.438,540.705,538.807,0.0
51896.0,STARLINK-3593,PAYLOAD,2023-11-20 21:32:09,15.08838754,0.0001392,53.2161,169.317,93.6555,266.4597,0.00021604,3.152e-05,0.0,0 STARLINK-3593,1 51896U 22022AW  23324.89732944  .00003152  00000-0  21604-3 0  9994,2 51896  53.2161 169.3170 0001392  93.6555 266.4597 15.08838754 96513,6917.884,95.438,540.712,538.786,0.0
51896.0,STARLINK-3593,PAYLOAD,2023-11-21 13:26:00,15.08843642,0.0001385,53.2157,166.343,93.8311,266.284,0.00019863,2.875e-05,0.0,0 STARLINK-3593,1 51896U 22022AW  23325.55973025  .00002875  00000-0  19863-3 0  9990,2 51896  53.2157 166.3430 0001385  93.8311 266.2840 15.08843642 96610,6917.869,95.437,540.692,538.776,0.0
51896.0,STARLINK-3593,PAYLOAD,2023-11-21 19:47:33,15.08849104,0.0001394,53.2148,165.1539,92.2588,267.8564,0.00024044,3.542e-05,0.0,0 STARLINK-3593,1 51896U 22022AW  23325.82468927  .00003542  00000-0  24044-3 0  9999,2 51896  53.2148 165.1539 0001394  92.2588 267.8564 15.08849104 96659,6917.853,95.437,540.682,538.753,0.0
51896.0,STARLINK-3593,PAYLOAD,2023-11-22 19:38:19,15.08850304,0.0001411,53.2145,160.6937,89.3413,270.774,0.00015342,2.155e-05,0.0,0 STARLINK-3593,1 51896U 22022AW  23326.81828600  .00002155  00000-0  15342-3 0  9997,2 51896  53.2145 160.6937 0001411  89.3413 270.7740 15.08850304 96802,6917.849,95.437,540.69,538.738,0.0
51896.0,STARLINK-3593,PAYLOAD,2023-11-23 13:07:34,15.08841689,0.000162,53.2151,157.4235,84.2284,275.8893,2.7783e-05,1.54e-06,0.0,0 STARLINK-3593,1 51896U 22022AW  23327.54692962  .00000154  00000-0  27783-4 0  9998,2 51896  53.2151 157.4235 0001620  84.2284 275.8893 15.08841689 96919,6917.875,95.437,540.861,538.62,0.0
51896.0,STARLINK-3593,PAYLOAD,2023-11-23 19:29:07,15.0883837,0.0001597,53.2167,156.2332,101.6144,258.5028,-2.1376e-05,-6.28e-06,0.0,0 STARLINK-3593,1 51896U 22022AW  23327.81189157 -.00000628  00000-0 -21376-4 0  9995,2 51896  53.2167 156.2332 0001597 101.6144 258.5028 15.08838370 96958,6917.885,95.438,540.855,538.646,0.0
51896.0,STARLINK-3593,PAYLOAD,2023-11-24 12:58:21,15.0883908,0.0001556,53.2168,152.9601,99.8772,260.2396,4.8553e-05,4.85e-06,0.0,0 STARLINK-3593,1 51896U 22022AW  23328.54052968  .00000485  00000-0  48553-4 0  9990,2 51896  53.2168 152.9601 0001556  99.8772 260.2396 15.08839080 97061,6917.883,95.438,540.825,538.672,0.0
51896.0,STARLINK-3593,PAYLOAD,2023-11-24 17:44:31,15.08841186,0.0001572,53.217,152.069,103.3541,256.7627,5.958e-05,6.6e-06,0.0,0 STARLINK-3593,1 51896U 22022AW  23328.73924792  .00000660  00000-0  59580-4 0  9991,2 51896  53.2170 152.0690 0001572 103.3541 256.7627 15.08841186 97096,6917.877,95.437,540.829,538.654,0.0
51896.0,STARLINK-3593,PAYLOAD,2023-11-25 17:35:18,15.08839721,0.0001442,53.2168,147.6092,98.0592,262.0564,0.0001121,1.497e-05,0.0,0 STARLINK-3593,1 51896U 22022AW  23329.73284958  .00001497  00000-0  11210-3 0  9991,2 51896  53.2168 147.6092 0001442  98.0592 262.0564 15.08839721 97240,6917.881,95.438,540.744,538.749,0.0
51896.0,STARLINK-3593,PAYLOAD,2023-11-26 19:01:29,15.08831045,0.0001344,53.216,142.8493,120.0006,240.112,-3.7816e-05,-8.9e-06,0.0,0 STARLINK-3593,1 51896U 22022AW  23330.79270032 -.00000890  00000-0 -37816-4 0  9996,2 51896  53.2160 142.8493 0001344 120.0006 240.1120 15.08831045 97405,6917.908,95.438,540.703,538.843,0.0
51896.0,STARLINK-3593,PAYLOAD,2023-11-26 22:12:16,15.08827007,0.0001351,53.2167,142.2581,100.5808,259.5337,-6.4161e-05,-1.308e-05,0.0,0 STARLINK-3593,1 51896U 22022AW  23330.92518569 -.00001308  00000-0 -64161-4 0  9999,2 51896  53.2167 142.2581 0001351 100.5808 259.5337 15.08827007 97424,6917.92,95.438,540.72,538.85,0.0
51896.0,STARLINK-3593,PAYLOAD,2023-11-27 10:55:21,15.08834159,0.0001647,53.2167,139.8779,126.2929,233.8215,-0.00012104,-2.214e-05,0.0,0 STARLINK-3593,1 51896U 22022AW  23331.45510683 -.00002214  00000-0 -12104-3 0  9993,2 51896  53.2167 139.8779 0001647 126.2929 233.8215 15.08834159 97507,6917.898,95.438,540.903,538.624,0.0
51896.0,STARLINK-3593,PAYLOAD,2023-11-27 18:52:16,15.08834904,0.0001468,53.2168,138.3911,112.9524,247.1623,-4.0918e-05,-9.39e-06,0.0,0 STARLINK-3593,1 51896U 22022AW  23331.78630565 -.00000939  00000-0 -40918-4 0  9998,2 51896  53.2168 138.3911 0001468 112.9524 247.1623 15.08834904 97558,6917.896,95.438,540.777,538.745,0.0
51896.0,STARLINK-3593,PAYLOAD,2023-11-28 10:46:07,15.08832433,0.0001208,53.2169,135.4164,91.5789,268.5341,0.00018609,2.674e-05,0.0,0 STARLINK-3593,1 51896U 22022AW  23332.44870365  .00002674  00000-0  18609-3 0  9993,2 51896  53.2169 135.4164 0001208  91.5789 268.5341 15.08832433 97654,6917.904,95.438,540.604,538.933,0.0
51896.0,STARLINK-3593,PAYLOAD,2023-11-28 20:18:26,15.08844832,0.0001112,53.2161,133.6321,94.393,265.7189,0.00029905,4.475e-05,0.0,0 STARLINK-3593,1 51896U 22022AW  23332.84613683  .00004475  00000-0  29905-3 0  9997,2 51896  53.2161 133.6321 0001112  94.3930 265.7189 15.08844832 97716,6917.866,95.437,540.5,538.961,0.0
51896.0,STARLINK-3593,PAYLOAD,2023-11-29 10:36:54,15.0884597,0.0001231,53.215,130.9551,98.0756,262.0376,0.00023688,3.485e-05,0.0,0 STARLINK-3593,1 51896U 22022AW  23333.44230125  .00003485  00000-0  23688-3 0  9992,2 51896  53.2150 130.9551 0001231  98.0756 262.0376 15.08845970 97800,6917.862,95.437,540.579,538.876,0.0
51896.0,STARLINK-3593,PAYLOAD,2023-11-29 16:58:26,15.08851039,0.0001233,53.2165,129.7673,85.2926,274.8207,0.00022053,3.225e-05,0.0,0 STARLINK-3593,1 51896U 22022AW  23333.70725464  .00003225  00000-0  22053-3 0  9993,2 51896  53.2165 129.7673 0001233  85.2926 274.8207 15.08851039 97847,6917.847,95.437,540.565,538.859,0.0
51896.0,STARLINK-3593,PAYLOAD,2023-11-30 16:49:13,15.08849368,0.000144,53.2161,125.3087,65.3359,294.7783,4.1934e-05,3.8e-06,0.0,0 STARLINK-3593,1 51896U 22022AW  23334.70085549  .00000380  00000-0  41934-4 0  9996,2 51896  53.2161 125.3087 0001440  65.3359 294.7783 15.08849368 97991,6917.852,95.437,540.713,538.721,0.0
51896.0,STARLINK-3593,PAYLOAD,2023-12-01 10:18:28,15.08841988,0.0001538,53.217,122.0396,81.0915,279.0251,9.539e-06,-1.36e-06,0.0,0 STARLINK-3593,1 51896U 22022AW  23335.42949733 -.00000136  00000-0  95390-5 0  9996,2 51896  53.2170 122.0396 0001538  81.0915 279.0251 15.08841988 98109,6917.874,95.437,540.803,538.675,0.0
51896.0,STARLINK-3593,PAYLOAD,2023-12-01 15:04:37,15.08841865,0.0001523,53.2175,121.1473,91.6626,268.4541,-9.7292e-07,-3.03e-06,0.0,0 STARLINK-3593,1 51896U 22022AW  23335.62821630 -.00000303  00000-0 -97292-6 0  9994,2 51896  53.2175 121.1473 0001523  91.6626 268.4541 15.08841865 98131,6917.875,95.437,540.793,538.686,0.0
51896.0,STARLINK-3593,PAYLOAD,2023-12-02 13:20:00,15.08848643,0.0001619,53.2183,116.9803,106.8418,253.2752,0.00013776,1.906e-05,0.0,0 STARLINK-3593,1 51896U 22022AW  23336.55556253  .00001906  00000-0  13776-3 0  9993,2 51896  53.2183 116.9803 0001619 106.8418 253.2752 15.08848643 98275,6917.854,95.437,540.839,538.599,0.0
51896.0,STARLINK-3593,PAYLOAD,2023-12-02 16:30:46,15.08851179,0.0001533,53.218,116.3859,100.1204,259.9961,0.00015903,2.245e-05,0.0,0 STARLINK-3593,1 51896U 22022AW  23336.68804078  .00002245  00000-0  15903-3 0  9999,2 51896  53.2180 116.3859 0001533 100.1204 259.9961 15.08851179 98297,6917.846,95.437,540.772,538.651,0.0
51896.0,STARLINK-3593,PAYLOAD,2023-12-03 13:10:50,15.08818901,0.0001468,53.2175,112.5151,108.6815,251.4337,-0.00013163,-2.381e-05,0.0,0 STARLINK-3593,1 51896U 22022AW  23337.54919603 -.00002381  00000-0 -13163-3 0  9995,2 51896  53.2175 112.5151 0001468 108.6815 251.4337 15.08818901 98427,6917.945,95.439,540.825,538.794,0.0
51896.0,STARLINK-3593,PAYLOAD,2023-12-03 17:57:00,15.08814664,0.0001487,53.2177,111.6231,111.6789,248.4361,-0.00016005,-2.832e-05,0.0,0 STARLINK-3593,1 51896U 22022AW  23337.74792198 -.00002832  00000-0 -16005-3 0  9994,2 51896  53.2177 111.6231 0001487 111.6789 248.4361 15.08814664 98451,6917.958,95.439,540.852,538.794,0.0
51896.0,STARLINK-3593,PAYLOAD,2023-12-04 13:01:37,15.08831217,0.0001012,53.2172,108.0577,109.295,250.8152,-0.00010433,-1.947e-05,0.0,0 STARLINK-3593,1 51896U 22022AW  23338.54279531 -.00001947  00000-0 -10433-3 0  9999,2 51896  53.2172 108.0577 0001012 109.2950 250.8152 15.08831217 98577,6917.907,95.438,540.472,539.072,0.0
